42959,IRIDIUM 119,2017,100.4,860.0,+,86.4,Active,1,LEO,USA,USA,Commercial/Government,Communications,Falcon,1 42959U 17061E   25011.60702225  .00000396  00000+0  13441-3 0  9990,2 42959  86.3954 243.1657 0001704  87.3711 272.7680 14.34219092380056,14.34219092,0.0001704,LEO
42960,IRIDIUM 107,2017,100.4,860.0,+,86.4,Active,1,LEO,USA,USA,Commercial/Government,Communications,Falcon,1 42960U 17061F   25011.76559114  .00000409  00000+0  13903-3 0  9994,2 42960  86.3954 243.1176 0001766 100.5341 259.6053 14.34219056380091,14.34219056,0.0001766,LEO
42961,IRIDIUM 132,2017,100.4,860.0,+,86.4,Active,1,LEO,USA,USA,Commercial/Government,Communications,Falcon,1 42961U 17061G   25011.14401267  .00000401  00000+0  13605-3 0  9993,2 42961  86.3955 243.3606 0001986  91.3763 268.7661 14.34220436379999,14.34220436,0.0001986,LEO
42962,IRIDIUM 136,2017,100.4,860.0,+,86.4,Active,1,LEO,USA,USA,Commercial/Government,Communications,Falcon,1 42962U 17061H   25011.73387370  .00000408  00000+0  13853-3 0  9999,2 42962  86.3954 243.1181 0001556  91.2585 268.8789 14.34218759380099,14.34218759,0.0001556,LEO
42963,IRIDIUM 139,2017,100.4,860.0,+,86.4,Active,1,LEO,USA,USA,Commercial/Government,Communications,Falcon,1 42963U 17061J   25011.74021607  .00000398  00000+0  13518-3 0  9995,2 42963  86.3956 243.1690 0001809  95.5983 264.5419 14.34216962380106,14.34216962,0.0001809,LEO
42964,IRIDIUM 125,2017,100.4,860.0,+,86.4,Active,1,LEO,USA,USA,Commercial/Government,Communications,Falcon,1 42964U 17061K   25011.58800776  .00000400  00000+0  13568-3 0  9999,2 42964  86.3957 243.2841 0001383  87.2752 272.8602 14.34216435380095,14.34216435,0.0001383,LEO
43070,IRIDIUM 135,2017,100.4,860.0,+,86.4,Active,1,LEO,USA,USA,Commercial/Government,Communications,Falcon,1 43070U 17083A   25011.56212070  .00000231  00000+0  75493-4 0  9992,2 43070  86.3998 180.0229 0002233  89.1529 270.9923 14.34218747369387,14.34218747,0.0002233,LEO
43071,IRIDIUM 138,2017,100.4,860.0,+,86.4,Active,1,LEO,USA,USA,Commercial/Government,Communications,Falcon,1 43071U 17083B   25011.51771837  .00000729  00000+0  25322-3 0  9996,2 43071  86.3985 179.7329 0001519  76.7571 283.3795 14.34218295369366,14.34218295,0.0001519,LEO
